{
  "type": "FeatureCollection",
  "features": [
    {
      "type": "Feature",
      "properties": {
        "norad_id": 43262,
        "name": "GAOFEN-1 04",
        "group": "resource",
        "lat": 77.54243079234918,
        "lon": 19.63659058976336,
        "alt_km": 632.9883098924611,
        "timestamp": "2025-12-27T19:21:58.432240+00:00",
        "meta_object_name": "GAOFEN-1 04",
        "meta_object_id": "2018-031D",
        "meta_epoch": "2025-12-27T12:29:49.178112",
        "meta_mean_motion": 14.76436819,
        "meta_eccentricity": 4.69e-05,
        "meta_inclination": 98.0784,
        "meta_ra_of_asc_node": 59.36,
        "meta_arg_of_pericenter": 69.6265,
        "meta_mean_anomaly": 290.4995,
        "meta_ephemeris_type": 0,
        "meta_classification_type": "U",
        "meta_norad_cat_id": 43262,
        "meta_element_set_no": 999,
        "meta_rev_at_epoch": 41735,
        "meta_bstar": 0.00018623,
        "meta_mean_motion_dot": 1.243e-05,
        "meta_mean_motion_ddot": 0,
        "tle_line1": "1 43262U 18031D   25361.52070808  .00001243  00000+0  18623-3 0  9999",
        "tle_line2": "2 43262  98.0784  59.3600 0000469  69.6265 290.4995 14.76436819417358"
      },
      "geometry": {
        "type": "Point",
        "coordinates": [
          19.63659058976336,
          77.54243079234918
        ]
      }
    },
    {
      "type": "Feature",
      "properties": {
        "norad_id": 43437,
        "name": "SENTINEL-3B",
        "group": "resource",
        "lat": 73.18406451808339,
        "lon": 36.62906503406137,
        "alt_km": 794.512079739271,
        "timestamp": "2025-12-27T19:21:58.432248+00:00",
        "meta_object_name": "SENTINEL-3B",
        "meta_object_id": "2018-039A",
        "meta_epoch": "2025-12-27T10:35:53.212704",
        "meta_mean_motion": 14.26739705,
        "meta_eccentricity": 0.0001552,
        "meta_inclination": 98.6248,
        "meta_ra_of_asc_node": 66.4148,
        "meta_arg_of_pericenter": 87.0448,
        "meta_mean_anomaly": 273.091,
        "meta_ephemeris_type": 0,
        "meta_classification_type": "U",
        "meta_norad_cat_id": 43437,
        "meta_element_set_no": 999,
        "meta_rev_at_epoch": 39963,
        "meta_bstar": 7.8545e-05,
        "meta_mean_motion_dot": 1.46e-06,
        "meta_mean_motion_ddot": 0,
        "tle_line1": "1 43437U 18039A   25361.44158811  .00000146  00000+0  78545-4 0  9994",
        "tle_line2": "2 43437  98.6248  66.4148 0001552  87.0448 273.0910 14.26739705399639"
      },
      "geometry": {
        "type": "Point",
        "coordinates": [
          36.62906503406137,
          73.18406451808339
        ]
      }
    },
    {
      "type": "Feature",
      "properties": {
        "norad_id": 43461,
        "name": "GAOFEN-5 01",
        "group": "resource",
        "lat": 81.48029458182113,
        "lon": -117.07488091684907,
        "alt_km": 684.6275865717325,
        "timestamp": "2025-12-27T19:21:58.432258+00:00",
        "meta_object_name": "GAOFEN-5 01",
        "meta_object_id": "2018-043A",
        "meta_epoch": "2025-12-27T10:44:21.598080",
        "meta_mean_motion": 14.60425697,
        "meta_eccentricity": 6.23e-05,
        "meta_inclination": 98.4348,
        "meta_ra_of_asc_node": 324.6732,
        "meta_arg_of_pericenter": 221.3673,
        "meta_mean_anomaly": 138.7479,
        "meta_ephemeris_type": 0,
        "meta_classification_type": "U",
        "meta_norad_cat_id": 43461,
        "meta_element_set_no": 999,
        "meta_rev_at_epoch": 40662,
        "meta_bstar": 0.00012286,
        "meta_mean_motion_dot": 5.46e-06,
        "meta_mean_motion_ddot": 0,
        "tle_line1": "1 43461U 18043A   25361.44747220  .00000546  00000+0  12286-3 0  9997",
        "tle_line2": "2 43461  98.4348 324.6732 0000623 221.3673 138.7479 14.60425697406629"
      },
      "geometry": {
        "type": "Point",
        "coordinates": [
          -117.07488091684907,
          81.48029458182113
        ]
      }
    },
    {
      "type": "Feature",
      "properties": {
        "norad_id": 43484,
        "name": "GAOFEN-6",
        "group": "resource",
        "lat": -58.029064958360095,
        "lon": -127.12127418310988,
        "alt_km": 653.8359821945305,
        "timestamp": "2025-12-27T19:21:58.432268+00:00",
        "meta_object_name": "GAOFEN-6",
        "meta_object_id": "2018-048A",
        "meta_epoch": "2025-12-27T11:46:56.013312",
        "meta_mean_motion": 14.7659486,
        "meta_eccentricity": 0.0012394,
        "meta_inclination": 97.8008,
        "meta_ra_of_asc_node": 65.2611,
        "meta_arg_of_pericenter": 19.5582,
        "meta_mean_anomaly": 340.6102,
        "meta_ephemeris_type": 0,
        "meta_classification_type": "U",
        "meta_norad_cat_id": 43484,
        "meta_element_set_no": 999,
        "meta_rev_at_epoch": 40805,
        "meta_bstar": 0.00023495,
        "meta_mean_motion_dot": 1.593e-05,
        "meta_mean_motion_ddot": 0,
        "tle_line1": "1 43484U 18048A   25361.49092608  .00001593  00000+0  23495-3 0  9992",
        "tle_line2": "2 43484  97.8008  65.2611 0012394  19.5582 340.6102 14.76594860408050"
      },
      "geometry": {
        "type": "Point",
        "coordinates": [
          -127.12127418310988,
          -58.029064958360095
        ]
      }
    },
    {
      "type": "Feature",
      "properties": {
        "norad_id": 43585,
        "name": "GAOFEN-11 01",
        "group": "resource",
        "lat": 29.98648963797248,
        "lon": 60.46163089064575,
        "alt_km": 418.70948559392673,
        "timestamp": "2025-12-27T19:21:58.432276+00:00",
        "meta_object_name": "GAOFEN-11 01",
        "meta_object_id": "2018-063A",
        "meta_epoch": "2025-12-27T13:02:13.312896",
        "meta_mean_motion": 15.4964995,
        "meta_eccentricity": 0.0003909,
        "meta_inclination": 97.1536,
        "meta_ra_of_asc_node": 64.3561,
        "meta_arg_of_pericenter": 236.6319,
        "meta_mean_anomaly": 123.4559,
        "meta_ephemeris_type": 0,
        "meta_classification_type": "U",
        "meta_norad_cat_id": 43585,
        "meta_element_set_no": 999,
        "meta_rev_at_epoch": 41371,
        "meta_bstar": 0.00039577,
        "meta_mean_motion_dot": 0.00021852,
        "meta_mean_motion_ddot": 0,
        "tle_line1": "1 43585U 18063A   25361.54320964  .00021852  00000+0  39577-3 0  9994",
        "tle_line2": "2 43585  97.1536  64.3561 0003909 236.6319 123.4559 15.49649950413711"
      },
      "geometry": {
        "type": "Point",
        "coordinates": [
          60.46163089064575,
          29.98648963797248
        ]
      }
    },
    {
      "type": "Feature",
      "properties": {
        "norad_id": 43613,
        "name": "ICESAT-2",
        "group": "resource",
        "lat": 56.25407436629976,
        "lon": -118.20058208260464,
        "alt_km": 474.1982001485867,
        "timestamp": "2025-12-27T19:21:58.432285+00:00",
        "meta_object_name": "ICESAT-2",
        "meta_object_id": "2018-070A",
        "meta_epoch": "2025-12-27T11:15:48.301920",
        "meta_mean_motion": 15.28298663,
        "meta_eccentricity": 0.0003278,
        "meta_inclination": 92.0037,
        "meta_ra_of_asc_node": 244.7123,
        "meta_arg_of_pericenter": 107.9678,
        "meta_mean_anomaly": 252.1929,
        "meta_ephemeris_type": 0,
        "meta_classification_type": "U",
        "meta_norad_cat_id": 43613,
        "meta_element_set_no": 999,
        "meta_rev_at_epoch": 40623,
        "meta_bstar": 0.00047945,
        "meta_mean_motion_dot": 0.00013218,
        "meta_mean_motion_ddot": 0,
        "tle_line1": "1 43613U 18070A   25361.46930905  .00013218  00000+0  47945-3 0  9992",
        "tle_line2": "2 43613  92.0037 244.7123 0003278 107.9678 252.1929 15.28298663406236"
      },
      "geometry": {
        "type": "Point",
        "coordinates": [
          -118.20058208260464,
          56.25407436629976
        ]
      }
    },
    {
      "type": "Feature",
      "properties": {
        "norad_id": 43719,
        "name": "HYSIS",
        "group": "resource",
        "lat": 27.081435199785478,
        "lon": 60.58208348209834,
        "alt_km": 631.9720762284769,
        "timestamp": "2025-12-27T19:21:58.432294+00:00",
        "meta_object_name": "HYSIS",
        "meta_object_id": "2018-096A",
        "meta_epoch": "2025-12-27T11:07:21.405216",
        "meta_mean_motion": 14.78684832,
        "meta_eccentricity": 7.33e-05,
        "meta_inclination": 98.0074,
        "meta_ra_of_asc_node": 64.3679,
        "meta_arg_of_pericenter": 54.0878,
        "meta_mean_anomaly": 306.0401,
        "meta_ephemeris_type": 0,
        "meta_classification_type": "U",
        "meta_norad_cat_id": 43719,
        "meta_element_set_no": 999,
        "meta_rev_at_epoch": 38204,
        "meta_bstar": 0.00020809,
        "meta_mean_motion_dot": 1.474e-05,
        "meta_mean_motion_ddot": 0,
        "tle_line1": "1 43719U 18096A   25361.46344219  .00001474  00000+0  20809-3 0  9995",
        "tle_line2": "2 43719  98.0074  64.3679 0000733  54.0878 306.0401 14.78684832382046"
      },
      "geometry": {
        "type": "Point",
        "coordinates": [
          60.58208348209834,
          27.081435199785478
        ]
      }
    }
  ]
}